{
  "type": "FeatureCollection",
  "features": [
    {
      "type": "Feature",
      "properties": {
        "norad_id": 66884,
        "name": "STARLINK-36057",
        "group": "last-30-days",
        "lat": -49.274303184163024,
        "lon": -7.756286462296535,
        "alt_km": 304.76236522687213,
        "timestamp": "2025-12-16T21:38:55.919213+00:00",
        "meta_object_name": "STARLINK-36057",
        "meta_object_id": "2025-283G",
        "meta_epoch": "2025-12-16T05:20:25.176768",
        "meta_mean_motion": 15.88232476,
        "meta_eccentricity": 0.00105,
        "meta_inclination": 53.1549,
        "meta_ra_of_asc_node": 56.2679,
        "meta_arg_of_pericenter": 238.2562,
        "meta_mean_anomaly": 121.7442,
        "meta_ephemeris_type": 0,
        "meta_classification_type": "U",
        "meta_norad_cat_id": 66884,
        "meta_element_set_no": 999,
        "meta_rev_at_epoch": 300,
        "meta_bstar": 0.0022938557,
        "meta_mean_motion_dot": 0.00698018,
        "meta_mean_motion_ddot": 0,
        "tle_line1": "1 66884U 25283G   25350.22251362  .00698018  00000+0  22939-2 0  9998",
        "tle_line2": "2 66884  53.1549  56.2679 0010500 238.2562 121.7442 15.88232476  3000"
      },
      "geometry": {
        "type": "Point",
        "coordinates": [
          -7.756286462296535,
          -49.274303184163024
        ]
      }
    },
    {
      "type": "Feature",
      "properties": {
        "norad_id": 66885,
        "name": "STARLINK-35954",
        "group": "last-30-days",
        "lat": -52.59298909601075,
        "lon": -25.835753927825277,
        "alt_km": 320.7577209402798,
        "timestamp": "2025-12-16T21:38:55.919225+00:00",
        "meta_object_name": "STARLINK-35954",
        "meta_object_id": "2025-283H",
        "meta_epoch": "2025-12-16T06:51:58.163040",
        "meta_mean_motion": 15.86623204,
        "meta_eccentricity": 0.00083276,
        "meta_inclination": 53.1548,
        "meta_ra_of_asc_node": 55.9531,
        "meta_arg_of_pericenter": 316.9485,
        "meta_mean_anomaly": 43.0888,
        "meta_ephemeris_type": 0,
        "meta_classification_type": "U",
        "meta_norad_cat_id": 66885,
        "meta_element_set_no": 999,
        "meta_rev_at_epoch": 301,
        "meta_bstar": -0.0099153014,
        "meta_mean_motion_dot": -0.02214088,
        "meta_mean_motion_ddot": 0,
        "tle_line1": "1 66885U 25283H   25350.28608985 -.02214088  00000+0 -99153-2 0  9999",
        "tle_line2": "2 66885  53.1548  55.9531 0008327 316.9485  43.0888 15.86623204  3017"
      },
      "geometry": {
        "type": "Point",
        "coordinates": [
          -25.835753927825277,
          -52.59298909601075
        ]
      }
    },
    {
      "type": "Feature",
      "properties": {
        "norad_id": 66886,
        "name": "STARLINK-35900",
        "group": "last-30-days",
        "lat": -50.42644559375961,
        "lon": -12.30643595251949,
        "alt_km": 312.7864308785556,
        "timestamp": "2025-12-16T21:38:55.919235+00:00",
        "meta_object_name": "STARLINK-35900",
        "meta_object_id": "2025-283J",
        "meta_epoch": "2025-12-16T03:49:40.189152",
        "meta_mean_motion": 15.86849525,
        "meta_eccentricity": 0.00025438,
        "meta_inclination": 53.155,
        "meta_ra_of_asc_node": 56.5859,
        "meta_arg_of_pericenter": 218.2258,
        "meta_mean_anomaly": 141.8587,
        "meta_ephemeris_type": 0,
        "meta_classification_type": "U",
        "meta_norad_cat_id": 66886,
        "meta_element_set_no": 999,
        "meta_rev_at_epoch": 299,
        "meta_bstar": 0.002026956,
        "meta_mean_motion_dot": 0.00566265,
        "meta_mean_motion_ddot": 0,
        "tle_line1": "1 66886U 25283J   25350.15949293  .00566265  00000+0  20270-2 0  9993",
        "tle_line2": "2 66886  53.1550  56.5859 0002543 218.2258 141.8587 15.86849525  2992"
      },
      "geometry": {
        "type": "Point",
        "coordinates": [
          -12.30643595251949,
          -50.42644559375961
        ]
      }
    },
    {
      "type": "Feature",
      "properties": {
        "norad_id": 66887,
        "name": "STARLINK-35925",
        "group": "last-30-days",
        "lat": -47.56581111930867,
        "lon": -2.2955265439018664,
        "alt_km": 306.8358922852849,
        "timestamp": "2025-12-16T21:38:55.919247+00:00",
        "meta_object_name": "STARLINK-35925",
        "meta_object_id": "2025-283K",
        "meta_epoch": "2025-12-16T05:19:11.379936",
        "meta_mean_motion": 15.87919839,
        "meta_eccentricity": 0.00091447,
        "meta_inclination": 53.1549,
        "meta_ra_of_asc_node": 56.262,
        "meta_arg_of_pericenter": 237.2957,
        "meta_mean_anomaly": 122.7187,
        "meta_ephemeris_type": 0,
        "meta_classification_type": "U",
        "meta_norad_cat_id": 66887,
        "meta_element_set_no": 999,
        "meta_rev_at_epoch": 300,
        "meta_bstar": 0.0020944577,
        "meta_mean_motion_dot": 0.00621681,
        "meta_mean_motion_ddot": 0,
        "tle_line1": "1 66887U 25283K   25350.22165949  .00621681  00000+0  20945-2 0  9993",
        "tle_line2": "2 66887  53.1549  56.2620 0009144 237.2957 122.7187 15.87919839  3009"
      },
      "geometry": {
        "type": "Point",
        "coordinates": [
          -2.2955265439018664,
          -47.56581111930867
        ]
      }
    },
    {
      "type": "Feature",
      "properties": {
        "norad_id": 66888,
        "name": "STARLINK-35919",
        "group": "last-30-days",
        "lat": -46.38979606040929,
        "lon": 0.8855150148097908,
        "alt_km": 310.72143644124117,
        "timestamp": "2025-12-16T21:38:55.919257+00:00",
        "meta_object_name": "STARLINK-35919",
        "meta_object_id": "2025-283L",
        "meta_epoch": "2025-12-16T06:49:16.676256",
        "meta_mean_motion": 15.88063942,
        "meta_eccentricity": 0.00015478,
        "meta_inclination": 53.1548,
        "meta_ra_of_asc_node": 55.9401,
        "meta_arg_of_pericenter": 85.8415,
        "meta_mean_anomaly": 274.2788,
        "meta_ephemeris_type": 0,
        "meta_classification_type": "U",
        "meta_norad_cat_id": 66888,
        "meta_element_set_no": 999,
        "meta_rev_at_epoch": 301,
        "meta_bstar": 0.002479459,
        "meta_mean_motion_dot": 0.00751295,
        "meta_mean_motion_ddot": 0,
        "tle_line1": "1 66888U 25283L   25350.28422079  .00751295  00000+0  24795-2 0  9992",
        "tle_line2": "2 66888  53.1548  55.9401 0001547  85.8415 274.2788 15.88063942  3014"
      },
      "geometry": {
        "type": "Point",
        "coordinates": [
          0.8855150148097908,
          -46.38979606040929
        ]
      }
    },
    {
      "type": "Feature",
      "properties": {
        "norad_id": 66889,
        "name": "STARLINK-35852",
        "group": "last-30-days",
        "lat": -48.237177967119365,
        "lon": -4.304245395257618,
        "alt_km": 316.21934246827277,
        "timestamp": "2025-12-16T21:38:55.919267+00:00",
        "meta_object_name": "STARLINK-35852",
        "meta_object_id": "2025-283M",
        "meta_epoch": "2025-12-16T06:49:12.357984",
        "meta_mean_motion": 15.86365499,
        "meta_eccentricity": 0.00019951,
        "meta_inclination": 53.1543,
        "meta_ra_of_asc_node": 55.9395,
        "meta_arg_of_pericenter": 185.1393,
        "meta_mean_anomaly": 174.9612,
        "meta_ephemeris_type": 0,
        "meta_classification_type": "U",
        "meta_norad_cat_id": 66889,
        "meta_element_set_no": 999,
        "meta_rev_at_epoch": 301,
        "meta_bstar": 0.0013138282,
        "meta_mean_motion_dot": 0.003494,
        "meta_mean_motion_ddot": 0,
        "tle_line1": "1 66889U 25283M   25350.28417081  .00349400  00000+0  13138-2 0  9990",
        "tle_line2": "2 66889  53.1543  55.9395 0001995 185.1393 174.9612 15.86365499  3010"
      },
      "geometry": {
        "type": "Point",
        "coordinates": [
          -4.304245395257618,
          -48.237177967119365
        ]
      }
    },
    {
      "type": "Feature",
      "properties": {
        "norad_id": 66890,
        "name": "STARLINK-35885",
        "group": "last-30-days",
        "lat": -43.54935327816154,
        "lon": 7.3298946073266835,
        "alt_km": 310.79536732728957,
        "timestamp": "2025-12-16T21:38:55.919277+00:00",
        "meta_object_name": "STARLINK-35885",
        "meta_object_id": "2025-283N",
        "meta_epoch": "2025-12-15T21:44:02.722848",
        "meta_mean_motion": 15.87705808,
        "meta_eccentricity": 0.00021789,
        "meta_inclination": 53.1551,
        "meta_ra_of_asc_node": 57.8457,
        "meta_arg_of_pericenter": 43.2715,
        "meta_mean_anomaly": 316.8482,
        "meta_ephemeris_type": 0,
        "meta_classification_type": "U",
        "meta_norad_cat_id": 66890,
        "meta_element_set_no": 999,
        "meta_rev_at_epoch": 295,
        "meta_bstar": 0.0017263509,
        "meta_mean_motion_dot": 0.00499019,
        "meta_mean_motion_ddot": 0,
        "tle_line1": "1 66890U 25283N   25349.90558707  .00499019  00000+0  17264-2 0  9996",
        "tle_line2": "2 66890  53.1551  57.8457 0002178  43.2715 316.8482 15.87705808  2954"
      },
      "geometry": {
        "type": "Point",
        "coordinates": [
          7.3298946073266835,
          -43.54935327816154
        ]
      }
    }
  ]
}